{
"type": "FeatureCollection",
"name": "service_areas",
"crs": { "type": "name", "properties": { "name": "urn:ogc:def:crs:OGC:1.3:CRS84" } },
"features": [
{ "type": "Feature", "properties": { "zone_id": "Z1", "zone_name": "West service area" }, "geometry": { "type": "Polygon", "coordinates": [ [ [ -95.35, 29.6 ], [ -95.35, 29.9 ], [ -95.5, 29.9 ], [ -95.5, 29.6 ], [ -95.35, 29.6 ] ] ] } },
{ "type": "Feature", "properties": { "zone_id": "Z2", "zone_name": "East service area" }, "geometry": { "type": "Polygon", "coordinates": [ [ [ -95.2, 29.6 ], [ -95.2, 29.9 ], [ -95.35, 29.9 ], [ -95.35, 29.6 ], [ -95.2, 29.6 ] ] ] } }
]
}
